{
"type": "FeatureCollection",
"name": "wind_potential_zones",
"crs": { "type": "name", "properties": { "name": "urn:ogc:def:crs:OGC:1.3:CRS84" } },
"features": [
{ "type": "Feature", "properties": { "patches": 1 }, "geometry": { "type": "Polygon", "coordinates": [ [ [ 8.656915914084472, 47.668750817181667 ], [ 8.656399330149632, 47.646270112080273 ], [ 8.722933109825586, 47.645553147791475 ], [ 8.723477928029901, 47.668033551621001 ], [ 8.656915914084472, 47.668750817181667 ] ] ] } },
{ "type": "Feature", "properties": { "patches": 2 }, "geometry": { "type": "Polygon", "coordinates": [ [ [ 8.956429689660679, 47.665222557514127 ], [ 8.955786073816665, 47.64274333435128 ], [ 9.055572210687609, 47.641396079489887 ], [ 9.054886849457157, 47.61891722230952 ], [ 9.088133645160852, 47.618449262888021 ], [ 9.08953315713577, 47.663406383918336 ], [ 8.956429689660679, 47.665222557514127 ] ] ] } },
{ "type": "Feature", "properties": { "patches": 3 }, "geometry": { "type": "Polygon", "coordinates": [ [ [ 9.22111474862478, 47.616482118899661 ], [ 9.220359558394328, 47.5940040868553 ], [ 9.253589174610678, 47.593488692329053 ], [ 9.254358444682719, 47.615966508031718 ], [ 9.22111474862478, 47.616482118899661 ] ] ] } },
{ "type": "Feature", "properties": { "patches": 4 }, "geometry": { "type": "MultiPolygon", "coordinates": [ [ [ [ 8.721301439772029, 47.578110758457974 ], [ 8.721844866373482, 47.600591747762699 ], [ 8.688606400325694, 47.600954694231746 ], [ 8.688077054485639, 47.578473552677664 ], [ 8.721301439772029, 47.578110758457974 ] ] ], [ [ [ 8.721301439772029, 47.578110758457974 ], [ 8.720758475686697, 47.555629580889814 ], [ 8.75396833034182, 47.555257416610672 ], [ 8.754525362535668, 47.577738438065474 ], [ 8.721301439772029, 47.578110758457974 ] ] ] ] } },
{ "type": "Feature", "properties": { "patches": 5 }, "geometry": { "type": "Polygon", "coordinates": [ [ [ 9.087434783504802, 47.595970405425334 ], [ 9.086736516911209, 47.573491354597223 ], [ 9.153172000272614, 47.572527652283618 ], [ 9.153898409003753, 47.595006298738156 ], [ 9.087434783504802, 47.595970405425334 ] ] ] } },
{ "type": "Feature", "properties": { "patches": 6 }, "geometry": { "type": "Polygon", "coordinates": [ [ [ 9.320046430224441, 47.592429327891551 ], [ 9.319249682232652, 47.569951762221137 ], [ 9.352463232735403, 47.56940802117078 ], [ 9.353274045682939, 47.591885358714002 ], [ 9.320046430224441, 47.592429327891551 ] ] ] } },
{ "type": "Feature", "properties": { "patches": 7 }, "geometry": { "type": "MultiPolygon", "coordinates": [ [ [ [ 8.919383428865336, 47.530773405110558 ], [ 9.018960124729787, 47.529457521250961 ], [ 9.020298656735243, 47.57441696501521 ], [ 8.920637619324774, 47.575733952761887 ], [ 8.919383428865336, 47.530773405110558 ] ] ], [ [ [ 8.919383428865336, 47.530773405110558 ], [ 8.819801937662989, 47.532003640078635 ], [ 8.819217766058539, 47.509522575829486 ], [ 8.918757133237063, 47.508292856237361 ], [ 8.919383428865336, 47.530773405110558 ] ] ] ] } },
{ "type": "Feature", "properties": { "patches": 8 }, "geometry": { "type": "MultiPolygon", "coordinates": [ [ [ [ 7.856821589358995, 47.516994737367249 ], [ 7.890011437712854, 47.516870318371517 ], [ 7.890202200765494, 47.539354461777485 ], [ 7.856998296409928, 47.539478932870516 ], [ 7.856821589358995, 47.516994737367249 ] ] ], [ [ [ 7.856821589358995, 47.516994737367249 ], [ 7.790441454364597, 47.517215019569669 ], [ 7.790292986134244, 47.494730556266958 ], [ 7.856645032384099, 47.49451036620146 ], [ 7.856821589358995, 47.516994737367249 ] ] ], [ [ [ 7.790292986134244, 47.494730556266958 ], [ 7.75711676804824, 47.494826379237892 ], [ 7.756714181038111, 47.427371850229392 ], [ 7.723579911830416, 47.427458050304693 ], [ 7.723699984636796, 47.449943095672374 ], [ 7.690551604516517, 47.450019824861741 ], [ 7.690445540935574, 47.427534747472073 ], [ 7.591041936938081, 47.42770782103225 ], [ 7.590977955909594, 47.405222509806109 ], [ 7.723459940709344, 47.404972843198465 ], [ 7.723340071125874, 47.382487477799209 ], [ 7.756446357802725, 47.382401349635764 ], [ 7.756580212720025, 47.40488667909429 ], [ 7.789700371327921, 47.404791016117798 ], [ 7.789848336678059, 47.427276147305257 ], [ 7.85611625973394, 47.427056233180345 ], [ 7.856292367789321, 47.4495411106627 ], [ 7.789996427474059, 47.449761116689537 ], [ 7.790292986134244, 47.494730556266958 ] ] ] ] } },
{ "type": "Feature", "properties": { "patches": 9 }, "geometry": { "type": "Polygon", "coordinates": [ [ [ 9.052151235361263, 47.528999861609407 ], [ 9.050786914934934, 47.484040070370853 ], [ 9.150272537529682, 47.482611198375082 ], [ 9.150996479184537, 47.505090585163977 ], [ 9.117821180776774, 47.505576586137174 ], [ 9.118531703055233, 47.528055996680848 ], [ 9.052151235361263, 47.528999861609407 ] ] ] } },
{ "type": "Feature", "properties": { "patches": 10 }, "geometry": { "type": "Polygon", "coordinates": [ [ [ 9.317658218933177, 47.524996060791089 ], [ 9.316069459310167, 47.480039622256903 ], [ 9.282911375349014, 47.48057294813583 ], [ 9.281353312407166, 47.435615353934764 ], [ 9.347612806599786, 47.434540097881928 ], [ 9.349226869307378, 47.479496791775659 ], [ 9.382383593460634, 47.478944457066291 ], [ 9.383205669332757, 47.501422308066061 ], [ 9.35003492891448, 47.50197487410275 ], [ 9.350843675354339, 47.52445277541274 ], [ 9.317658218933177, 47.524996060791089 ] ] ] } },
{ "type": "Feature", "properties": { "patches": 11 }, "geometry": { "type": "MultiPolygon", "coordinates": [ [ [ [ 7.458511091763475, 47.450290732723964 ], [ 7.591105972127643, 47.450192970608448 ], [ 7.591170061557114, 47.472677955089488 ], [ 7.458519094718921, 47.472775757767572 ], [ 7.458511091763475, 47.450290732723964 ] ] ], [ [ [ 7.458511091763475, 47.450290732723964 ], [ 7.425362325312706, 47.450291405462401 ], [ 7.42537434701666, 47.405320863275612 ], [ 7.49161585790847, 47.405310019355582 ], [ 7.491637845480902, 47.42779536691684 ], [ 7.458503095452142, 47.427805542619794 ], [ 7.458511091763475, 47.450290732723964 ] ] ] ] } },
{ "type": "Feature", "properties": { "patches": 12 }, "geometry": { "type": "MultiPolygon", "coordinates": [ [ [ [ 9.513249367425622, 47.431685779478194 ], [ 9.514126008702526, 47.454163019131101 ], [ 9.480986146915491, 47.454753119867426 ], [ 9.480123494014686, 47.432275633410377 ], [ 9.513249367425622, 47.431685779478194 ] ] ], [ [ [ 9.578595025194659, 47.408000682806808 ], [ 9.580403488029052, 47.452954323200515 ], [ 9.547265126357344, 47.453563420104558 ], [ 9.546374497784853, 47.431086431221885 ], [ 9.513249367425622, 47.431685779478194 ], [ 9.512373469190074, 47.409208368154225 ], [ 9.47926157231961, 47.409797975491571 ], [ 9.480123494014686, 47.432275633410377 ], [ 9.446996889387833, 47.432855992612765 ], [ 9.446148945294532, 47.410378092062338 ], [ 9.379921548065214, 47.411509851316175 ], [ 9.377465754774073, 47.344073738965598 ], [ 9.443609418791452, 47.342943397419916 ], [ 9.442764341748745, 47.320464846390792 ], [ 9.50887728512344, 47.319297075247086 ], [ 9.511498312917448, 47.386730788613988 ], [ 9.544595504169088, 47.386131941260295 ], [ 9.545484624087294, 47.408609270455415 ], [ 9.578595025194659, 47.408000682806808 ] ] ], [ [ [ 9.578595025194659, 47.408000682806808 ], [ 9.576789624737224, 47.363046367835715 ], [ 9.543707136936753, 47.363654447091946 ], [ 9.54193265616612, 47.31869897765759 ], [ 9.574987277780503, 47.31809140593333 ], [ 9.575888070124721, 47.340568966022957 ], [ 9.608955856671674, 47.339951662972986 ], [ 9.609871349152421, 47.362428806960814 ], [ 9.64295229840411, 47.361801764890728 ], [ 9.644813518783916, 47.406755039338911 ], [ 9.578595025194659, 47.408000682806808 ] ] ], [ [ [ 9.377465754774073, 47.344073738965598 ], [ 9.344392879375814, 47.344624689827747 ], [ 9.346001479267263, 47.389582721356639 ], [ 9.279797890069489, 47.390657078629339 ], [ 9.279021166732448, 47.368177694194728 ], [ 9.245932338822335, 47.368700420897248 ], [ 9.246695102196666, 47.391180023801986 ], [ 9.180487598977919, 47.392197445424436 ], [ 9.181223062417008, 47.414677310564208 ], [ 9.081865239903731, 47.416132874394819 ], [ 9.079094611784061, 47.32621002020953 ], [ 9.012964781623889, 47.327131379936574 ], [ 9.012301449390412, 47.304649893414208 ], [ 9.045352720183002, 47.304194143603851 ], [ 9.044676029325723, 47.281712698999684 ], [ 9.077712809742051, 47.281247667589966 ], [ 9.078403418801889, 47.303728918150327 ], [ 9.111453533490204, 47.303254217371986 ], [ 9.110045075471421, 47.258291967020789 ], [ 9.176087865289665, 47.257314956113156 ], [ 9.175356742441, 47.23483402370838 ], [ 9.208363325840084, 47.234331527910975 ], [ 9.209108339957808, 47.256812250832567 ], [ 9.275147390230687, 47.255778442334375 ], [ 9.275920836673887, 47.278258591819451 ], [ 9.308953289050184, 47.277727267817056 ], [ 9.31052997892289, 47.322686681481748 ], [ 9.343589599749361, 47.322145437071377 ], [ 9.342786999021579, 47.299666030925735 ], [ 9.408876349748278, 47.298555576474676 ], [ 9.409706792919561, 47.321034519145634 ], [ 9.376648541667656, 47.321594716167006 ], [ 9.377465754774073, 47.344073738965598 ] ], [ [ 9.113570690263735, 47.370696469252714 ], [ 9.146662029338358, 47.370211686623264 ], [ 9.145941761489075, 47.347731292873902 ], [ 9.112864374220358, 47.34821587304836 ], [ 9.113570690263735, 47.370696469252714 ] ], [ [ 9.178284941764492, 47.324756886868684 ], [ 9.211347160604511, 47.324253552075369 ], [ 9.210600256427361, 47.301773266368116 ], [ 9.177551964055716, 47.302276391146371 ], [ 9.178284941764492, 47.324756886868684 ] ] ], [ [ [ 9.044676029325723, 47.281712698999684 ], [ 8.978600766199106, 47.282614346426818 ], [ 8.979249618182545, 47.305096167269504 ], [ 8.946197238319407, 47.30553296486444 ], [ 8.944927911735675, 47.260568814378317 ], [ 9.010976465333899, 47.259686479293151 ], [ 9.010314811889291, 47.237204558598272 ], [ 9.043324360795353, 47.236749378588911 ], [ 9.042649381469849, 47.214267509686806 ], [ 9.10863899327007, 47.213329149615596 ], [ 9.109341737823417, 47.235810627473541 ], [ 9.076333340008715, 47.236284734774998 ], [ 9.077022783758977, 47.258766271980733 ], [ 9.043999909805505, 47.25923110951063 ], [ 9.044676029325723, 47.281712698999684 ] ] ] ] } },
{ "type": "Feature", "properties": { "patches": 15 }, "geometry": { "type": "Polygon", "coordinates": [ [ [ 8.784329485443287, 47.442468716364054 ], [ 8.782626342512719, 47.375022466249391 ], [ 8.848819431405277, 47.374233176535348 ], [ 8.85001028708532, 47.419196846359306 ], [ 8.816886035156259, 47.419596570048022 ], [ 8.817468225995201, 47.442078326912885 ], [ 8.784329485443287, 47.442468716364054 ] ] ] } },
{ "type": "Feature", "properties": { "patches": 16 }, "geometry": { "type": "Polygon", "coordinates": [ [ [ 8.983154279596084, 47.439983863144541 ], [ 8.981199469203659, 47.3725407278814 ], [ 9.014293130566811, 47.372093894646881 ], [ 9.013628675077806, 47.349612714831281 ], [ 9.046707819224565, 47.349156584349473 ], [ 9.049424909915006, 47.439079575343364 ], [ 8.983154279596084, 47.439983863144541 ] ] ] } },
{ "type": "Feature", "properties": { "patches": 17 }, "geometry": { "type": "MultiPolygon", "coordinates": [ [ [ [ 7.292953429925328, 47.382743090111596 ], [ 7.32606011063174, 47.382780398639916 ], [ 7.32601214963557, 47.405265885414181 ], [ 7.392253593497418, 47.405312036481135 ], [ 7.392233587371513, 47.427797384586789 ], [ 7.259694871811086, 47.427667030984693 ], [ 7.259770869106348, 47.405181737827412 ], [ 7.292891483022149, 47.405228561173693 ], [ 7.292953429925328, 47.382743090111596 ] ] ], [ [ [ 7.292953429925328, 47.382743090111596 ], [ 7.259846801840068, 47.382696286450809 ], [ 7.259922670105931, 47.360210680300426 ], [ 7.29301532420756, 47.360257464292417 ], [ 7.292953429925328, 47.382743090111596 ] ] ] ] } },
{ "type": "Feature", "properties": { "patches": 20 }, "geometry": { "type": "Polygon", "coordinates": [ [ [ 6.895680753988815, 47.381554781337393 ], [ 6.895910326121124, 47.359069653540601 ], [ 6.962093099563719, 47.359362529528219 ], [ 6.961891471716055, 47.381847780022468 ], [ 6.895680753988815, 47.381554781337393 ] ] ] } },
{ "type": "Feature", "properties": { "patches": 21 }, "geometry": { "type": "MultiPolygon", "coordinates": [ [ [ [ 7.193737566856435, 47.360088638964342 ], [ 7.226830080378987, 47.360154405178164 ], [ 7.226740238223012, 47.382639987689842 ], [ 7.193633750921053, 47.382574193867462 ], [ 7.193737566856435, 47.360088638964342 ] ] ], [ [ [ 7.160645141367763, 47.360013381704228 ], [ 7.160762831092359, 47.337527706981518 ], [ 7.193841294758609, 47.337602932690025 ], [ 7.193737566856435, 47.360088638964342 ], [ 7.160645141367763, 47.360013381704228 ] ] ], [ [ [ 7.160645141367763, 47.360013381704228 ], [ 7.160527351780871, 47.382498905029017 ], [ 7.094314865371286, 47.382319842518058 ], [ 7.094606214726632, 47.337348794538315 ], [ 7.061528085650464, 47.33724510792657 ], [ 7.061687524753367, 47.314759403604334 ], [ 6.995559582316467, 47.314523668672024 ], [ 6.995746761323385, 47.292037918375989 ], [ 7.028796721843039, 47.29216047594339 ], [ 7.02896981698994, 47.269674533152823 ], [ 7.062005998287869, 47.26978756458962 ], [ 7.061846828900662, 47.292273554676477 ], [ 7.160997911533612, 47.292555917126784 ], [ 7.161115302539049, 47.270069808887484 ], [ 7.194151951541153, 47.270144940101083 ], [ 7.19394493475522, 47.315117078490502 ], [ 7.127816007017504, 47.314957207058228 ], [ 7.127552815742222, 47.359928633449648 ], [ 7.160645141367763, 47.360013381704228 ] ] ], [ [ [ 7.194151951541153, 47.270144940101083 ], [ 7.194255328584561, 47.247658662804035 ], [ 7.293324008970869, 47.247827134449309 ], [ 7.293262376651378, 47.27031348236347 ], [ 7.326299305185241, 47.270350712529698 ], [ 7.326251547468298, 47.292836938563461 ], [ 7.359302443383536, 47.292864705077115 ], [ 7.359268583809172, 47.315350801850499 ], [ 7.293138955214351, 47.315285762166184 ], [ 7.293200692091119, 47.292799692751288 ], [ 7.227099150065401, 47.292696763340231 ], [ 7.227188688067984, 47.27021059611387 ], [ 7.194151951541153, 47.270144940101083 ] ] ] ] } },
{ "type": "Feature", "properties": { "patches": 23 }, "geometry": { "type": "Polygon", "coordinates": [ [ [ 7.359166832112087, 47.382808212009977 ], [ 7.359200778215271, 47.360322558762959 ], [ 7.458479146286114, 47.360349016397109 ], [ 7.458487122723117, 47.382834681010898 ], [ 7.359166832112087, 47.382808212009977 ] ] ] } },
{ "type": "Feature", "properties": { "patches": 24 }, "geometry": { "type": "MultiPolygon", "coordinates": [ [ [ [ 7.524664711686727, 47.360319198699983 ], [ 7.52470063646437, 47.382804851041591 ], [ 7.491593888825321, 47.382824513620854 ], [ 7.491571938204589, 47.360338853158119 ], [ 7.524664711686727, 47.360319198699983 ] ] ], [ [ [ 7.524664711686727, 47.360319198699983 ], [ 7.524592952884449, 47.315347443595392 ], [ 7.722981070128231, 47.315030466301991 ], [ 7.723100635982321, 47.337516285904996 ], [ 7.590786337004436, 47.337765640683571 ], [ 7.590850156021235, 47.360251416186088 ], [ 7.524664711686727, 47.360319198699983 ] ] ], [ [ [ 7.756045471810653, 47.314944445777599 ], [ 7.822173925142927, 47.314743955792068 ], [ 7.822496891449498, 47.359715208068863 ], [ 7.789404816236747, 47.359820282116303 ], [ 7.789257226132325, 47.337334686194126 ], [ 7.756178987512214, 47.33743022953135 ], [ 7.756045471810653, 47.314944445777599 ] ] ], [ [ [ 7.722981070128231, 47.315030466301991 ], [ 7.722861605223728, 47.292544502190069 ], [ 7.755912068853176, 47.292458517484512 ], [ 7.756045471810653, 47.314944445777599 ], [ 7.722981070128231, 47.315030466301991 ] ] ], [ [ [ 7.524592952884449, 47.315347443595392 ], [ 7.392333447206025, 47.315369096785844 ], [ 7.392353368058079, 47.292882992273064 ], [ 7.458455256569681, 47.292891128667819 ], [ 7.458447306497098, 47.270404879615725 ], [ 7.491484319810231, 47.27039473294559 ], [ 7.491506196848964, 47.292880977860804 ], [ 7.524557118772053, 47.292861347724433 ], [ 7.524592952884449, 47.315347443595392 ] ] ], [ [ [ 7.755912068853176, 47.292458517484512 ], [ 7.755778778476389, 47.269972448098592 ], [ 7.821851504165188, 47.26977212507483 ], [ 7.822012646586789, 47.292258111015244 ], [ 7.755912068853176, 47.292458517484512 ] ] ], [ [ [ 7.755778778476389, 47.269972448098592 ], [ 7.722742241122502, 47.270058397015617 ], [ 7.722503814746051, 47.225085777265889 ], [ 7.755512534812841, 47.224999899835034 ], [ 7.755778778476389, 47.269972448098592 ] ] ] ] } },
{ "type": "Feature", "properties": { "patches": 25 }, "geometry": { "type": "MultiPolygon", "coordinates": [ [ [ [ 8.219258679754782, 47.335229347762962 ], [ 8.219917092002946, 47.380198629650209 ], [ 8.186813468469635, 47.380417678063587 ], [ 8.186182983647164, 47.335448213307203 ], [ 8.219258679754782, 47.335229347762962 ] ] ], [ [ [ 8.219258679754782, 47.335229347762962 ], [ 8.218929891167067, 47.312744481949444 ], [ 8.251991363453069, 47.312516226228425 ], [ 8.252334097635325, 47.33500099676273 ], [ 8.219258679754782, 47.335229347762962 ] ] ] ] } },
{ "type": "Feature", "properties": { "patches": 27 }, "geometry": { "type": "Polygon", "coordinates": [ [ [ 8.848224759602989, 47.35175110323933 ], [ 8.847036924420664, 47.306786497130275 ], [ 8.880090879674759, 47.306378130084035 ], [ 8.878271153511301, 47.238930634475267 ], [ 8.911282864097755, 47.238513312725431 ], [ 8.914387917557193, 47.350924201868672 ], [ 8.848224759602989, 47.35175110323933 ] ] ] } },
{ "type": "Feature", "properties": { "patches": 28 }, "geometry": { "type": "Polygon", "coordinates": [ [ [ 8.649213114819288, 47.331520982644697 ], [ 8.648193458520668, 47.286554199368936 ], [ 8.681236319820707, 47.286202847414131 ], [ 8.682283841937583, 47.33116933731899 ], [ 8.649213114819288, 47.331520982644697 ] ] ] } },
{ "type": "Feature", "properties": { "patches": 30 }, "geometry": { "type": "MultiPolygon", "coordinates": [ [ [ [ 7.987030733659702, 47.269105507401854 ], [ 7.987261502443887, 47.291591215500418 ], [ 7.954212074202393, 47.29174355189717 ], [ 7.953995230194008, 47.269257780318931 ], [ 7.987030733659702, 47.269105507401854 ] ] ], [ [ [ 8.086136028632906, 47.268591842141213 ], [ 8.086408569981495, 47.291077336069158 ], [ 8.020310735670249, 47.291429400655296 ], [ 8.020066042392733, 47.268943759991792 ], [ 7.987030733659702, 47.269105507401854 ], [ 7.986569779998145, 47.224133680796328 ], [ 8.019577274998399, 47.223972068085331 ], [ 8.019333200284265, 47.20148602373731 ], [ 7.98633959455746, 47.201647569184125 ], [ 7.986109603002182, 47.179161329962341 ], [ 8.052068854023528, 47.17882891488857 ], [ 8.053101144635987, 47.268772538199279 ], [ 8.086136028632906, 47.268591842141213 ] ] ], [ [ [ 8.249600309702796, 47.155118954446934 ], [ 8.250623318591916, 47.222575724595792 ], [ 8.217617510990472, 47.222803600005385 ], [ 8.217290107482921, 47.200318042086231 ], [ 8.184297910895644, 47.200536360877599 ], [ 8.18461142717085, 47.223022009729725 ], [ 8.151605078852299, 47.22323095361984 ], [ 8.152205094864552, 47.268202027728904 ], [ 8.185239253589309, 47.267992909640888 ], [ 8.1858681410573, 47.312963256175316 ], [ 8.152806124911102, 47.313172548756206 ], [ 8.152505482949779, 47.290687359101561 ], [ 8.119457147519771, 47.290887086568773 ], [ 8.119170682627535, 47.26840167194112 ], [ 8.086136028632906, 47.268591842141213 ], [ 8.085591635598984, 47.223620443333935 ], [ 8.118598477754791, 47.223430431533231 ], [ 8.118027237101121, 47.178458665906916 ], [ 8.183984658732813, 47.178050584025222 ], [ 8.183358945217716, 47.133078660113249 ], [ 8.216309550253206, 47.132860613660711 ], [ 8.216636127512642, 47.155346545465356 ], [ 8.249600309702796, 47.155118954446934 ] ] ], [ [ [ 8.249600309702796, 47.155118954446934 ], [ 8.249259880663972, 47.132633117279454 ], [ 8.282209924799096, 47.132396171124114 ], [ 8.282564205203235, 47.154881909720402 ], [ 8.249600309702796, 47.155118954446934 ] ] ], [ [ [ 8.117172177938555, 47.111000093023918 ], [ 8.116887637315116, 47.088513669338106 ], [ 8.149811085745226, 47.088314688639734 ], [ 8.149512966082131, 47.06582823696418 ], [ 8.11660333566423, 47.06602713503753 ], [ 8.116319272641185, 47.043540493571122 ], [ 8.182110670784253, 47.04313342802223 ], [ 8.183046483103972, 47.110592519950742 ], [ 8.117172177938555, 47.111000093023918 ] ] ], [ [ [ 8.116319272641185, 47.043540493571122 ], [ 8.083423210345492, 47.043729874441091 ], [ 8.082883377572015, 46.998756126736801 ], [ 8.115751861103021, 46.99856690293668 ], [ 8.116319272641185, 47.043540493571122 ] ] ], [ [ [ 7.524023198873741, 46.9555549258626 ], [ 7.491179953778074, 46.955574435315391 ], [ 7.491158348905543, 46.933086489901399 ], [ 7.52398784171256, 46.933066988439798 ], [ 7.524023198873741, 46.9555549258626 ] ] ], [ [ [ 8.052068854023528, 47.17882891488857 ], [ 8.051811324613336, 47.156342689744882 ], [ 8.01884566733302, 47.156513555489973 ], [ 8.018358954372344, 47.111540604160467 ], [ 7.985420788848236, 47.111701881117654 ], [ 7.985879805051992, 47.156674966578734 ], [ 7.952913749442597, 47.156826922901388 ], [ 7.95356209082855, 47.224285826915107 ], [ 7.854537975542751, 47.224685464713268 ], [ 7.854363349834899, 47.202199123499398 ], [ 7.788374298289898, 47.202418122881738 ], [ 7.788227577433775, 47.179931563203091 ], [ 7.689284740071187, 47.18018898134109 ], [ 7.689074839363949, 47.13521528002255 ], [ 7.656121425372493, 47.13528211183926 ], [ 7.65593955469655, 47.090307887496763 ], [ 7.623013741974884, 47.090365220203807 ], [ 7.622936742487068, 47.067877917589456 ], [ 7.655848733785788, 47.06782060862065 ], [ 7.655667320268592, 47.022845734698137 ], [ 7.622782937005489, 47.022902996250458 ], [ 7.622859807528294, 47.045390508455689 ], [ 7.557063262839366, 47.045476771226753 ], [ 7.557013989021892, 47.022989223384897 ], [ 7.524129447453314, 47.023018188908871 ], [ 7.524094001701549, 47.000530529545543 ], [ 7.491223217433549, 47.000550055001092 ], [ 7.491201576612103, 46.978062291498119 ], [ 7.524058585522561, 46.978042774047331 ], [ 7.524023198873741, 46.9555549258626 ], [ 7.55686641448088, 46.955525996093229 ], [ 7.556817305073497, 46.933038070568585 ], [ 7.589646727478718, 46.932999736307103 ], [ 7.589395804986777, 46.843047273790432 ], [ 7.622170281407437, 46.842999601846572 ], [ 7.622017755405645, 46.798022963933668 ], [ 7.687511750492441, 46.797899519687981 ], [ 7.687201474777683, 46.730434235341129 ], [ 7.752613164201141, 46.730273418566263 ], [ 7.752743800863726, 46.752761839839913 ], [ 7.785463136866144, 46.75266732078066 ], [ 7.785607542161437, 46.775155644737829 ], [ 7.752874546276987, 46.775250202780384 ], [ 7.753005400597063, 46.797738503937907 ], [ 7.851245029242315, 46.797426534712201 ], [ 7.851417040142232, 46.819914641831026 ], [ 7.818656943019613, 46.820028071055368 ], [ 7.818815403668941, 46.842516156245665 ], [ 7.786041480536901, 46.842620231917508 ], [ 7.786331376593916, 46.887596268298509 ], [ 7.851933934642454, 46.887378536649798 ], [ 7.851761492635812, 46.864890646249378 ], [ 7.884548844781384, 46.864767719032052 ], [ 7.884921317261409, 46.909743318979331 ], [ 7.852106520764961, 46.909866347911958 ], [ 7.852625145904275, 46.977329272376473 ], [ 7.819768951711491, 46.977443030456172 ], [ 7.820087866275564, 47.022417948821932 ], [ 7.852971620390445, 47.022304096428286 ], [ 7.85314507557863, 47.044791360430686 ], [ 7.951836810030104, 47.044393048975103 ], [ 7.951621964227277, 47.021905950137985 ], [ 8.017387978964853, 47.02159336259961 ], [ 8.017630417238941, 47.044080331731223 ], [ 8.050526921348991, 47.04390982053507 ], [ 8.051554011872293, 47.133856343770688 ], [ 8.084505598883046, 47.133676098449833 ], [ 8.084234660555333, 47.111189709994584 ], [ 8.117172177938555, 47.111000093023918 ], [ 8.11774197748521, 47.155972594756818 ], [ 8.084776765221134, 47.156162369459629 ], [ 8.085048159899413, 47.17864851957566 ], [ 8.052068854023528, 47.17882891488857 ] ], [ [ 7.755114009605595, 47.157540105415087 ], [ 7.788080980038144, 47.157444879633054 ], [ 7.787934505924563, 47.134958075619139 ], [ 7.754981391298957, 47.13505326185755 ], [ 7.755114009605595, 47.157540105415087 ] ], [ [ 7.853840354199329, 47.134739349153541 ], [ 7.854014539375616, 47.157226062271995 ], [ 7.886981104930782, 47.1571024708417 ], [ 7.886793064532454, 47.134615809074859 ], [ 7.853840354199329, 47.134739349153541 ] ], [ [ 7.853840354199329, 47.134739349153541 ], [ 7.853666315442711, 47.112252518962201 ], [ 7.820727302463665, 47.112366560460366 ], [ 7.820887497444089, 47.13485343802747 ], [ 7.853840354199329, 47.134739349153541 ] ], [ [ 7.886793064532454, 47.134615809074859 ], [ 7.919745616786043, 47.134482817875259 ], [ 7.919342334958935, 47.089509256876262 ], [ 7.886417457738363, 47.089642137640674 ], [ 7.886793064532454, 47.134615809074859 ] ], [ [ 7.688551627611545, 47.022779041205069 ], [ 7.721435847458846, 47.022702915816318 ], [ 7.721199614838778, 46.977727761484275 ], [ 7.688342956254339, 46.977803823876613 ], [ 7.688551627611545, 47.022779041205069 ] ], [ [ 7.786767129868324, 46.955059721275532 ], [ 7.81960969463696, 46.954955430206454 ], [ 7.81945057077794, 46.932467740510518 ], [ 7.786621757318982, 46.93257198842791 ], [ 7.786767129868324, 46.955059721275532 ] ], [ [ 7.622399547685863, 46.910464009844105 ], [ 7.655215113140956, 46.910406866484486 ], [ 7.655034758667426, 46.865430718256547 ], [ 7.622246639771979, 46.865487814477831 ], [ 7.622399547685863, 46.910464009844105 ] ], [ [ 7.688030603220819, 46.910340310734277 ], [ 7.720846006433001, 46.910264342638264 ], [ 7.720728333869549, 46.887776366858546 ], [ 7.687926659441926, 46.887852303575194 ], [ 7.688030603220819, 46.910340310734277 ] ], [ [ 7.687511750492441, 46.797899519687981 ], [ 7.687615348053727, 46.820387822048929 ], [ 7.720375904914992, 46.820311979312905 ], [ 7.720258624372518, 46.797823708226439 ], [ 7.687511750492441, 46.797899519687981 ] ] ] ] } },
{ "type": "Feature", "properties": { "patches": 32 }, "geometry": { "type": "Polygon", "coordinates": [ [ [ 7.590658860434412, 47.292793649523446 ], [ 7.590595202725156, 47.270307440758323 ], [ 7.656668876198263, 47.270201869366694 ], [ 7.656760387327331, 47.292688034249288 ], [ 7.590658860434412, 47.292793649523446 ] ] ] } },
{ "type": "Feature", "properties": { "patches": 33 }, "geometry": { "type": "MultiPolygon", "coordinates": [ [ [ [ 6.799877649201394, 47.088729331085773 ], [ 6.799608900417045, 47.111215840507349 ], [ 6.766671355849654, 47.111027563473023 ], [ 6.766953934651193, 47.088541132460676 ], [ 6.799877649201394, 47.088729331085773 ] ] ], [ [ [ 6.766953934651193, 47.088541132460676 ], [ 6.701107230029087, 47.08813640782158 ], [ 6.701417206963118, 47.065650034663484 ], [ 6.767236275835804, 47.066054590841574 ], [ 6.766953934651193, 47.088541132460676 ] ] ], [ [ [ 6.866447792679551, 47.021616788223966 ], [ 6.865966629711213, 47.066590635434167 ], [ 6.964698805766033, 47.067041729545046 ], [ 6.96489806436777, 47.044554669931983 ], [ 6.99779533199449, 47.044686101514557 ], [ 6.997609881887695, 47.067173215872465 ], [ 7.129255630711332, 47.067604766963036 ], [ 7.128994873635054, 47.112579031889368 ], [ 7.096055589563995, 47.112485225196259 ], [ 7.096199855513176, 47.089998186884486 ], [ 7.030349328230955, 47.089782321314026 ], [ 7.030177397770487, 47.112269269598272 ], [ 6.997238513330497, 47.112147120840312 ], [ 6.996866518810498, 47.157120571156447 ], [ 7.029833102089855, 47.157242821858532 ], [ 7.02966073645048, 47.179729418938869 ], [ 7.062641332133307, 47.179842261589201 ], [ 7.062482699838638, 47.202328781843086 ], [ 7.029488225331605, 47.202215892055833 ], [ 7.029142765812534, 47.247188452609997 ], [ 6.963098681301255, 47.246934071555351 ], [ 6.963499725100315, 47.201961723472635 ], [ 6.930505722791937, 47.201820444850256 ], [ 6.930291395718968, 47.224306625351502 ], [ 6.897283684638411, 47.224155821008928 ], [ 6.897511901298239, 47.201669703467218 ], [ 6.864518272325986, 47.201509499426415 ], [ 6.86500187188052, 47.15653701862206 ], [ 6.83203619006083, 47.156367493554022 ], [ 6.832546671310389, 47.111394670977809 ], [ 6.865484656892084, 47.111564054762823 ], [ 6.865725744679144, 47.089077400307978 ], [ 6.799877649201394, 47.088729331085773 ], [ 6.800146171988854, 47.066242711123373 ], [ 6.767236275835804, 47.066054590841574 ], [ 6.767518379746185, 47.043567942064527 ], [ 6.833310783812661, 47.043934591284362 ], [ 6.833565060051539, 47.021447686293129 ], [ 6.866447792679551, 47.021616788223966 ] ], [ [ 6.963499725100315, 47.201961723472635 ], [ 6.996493896516115, 47.202093539237815 ], [ 6.996680286248595, 47.179607117200341 ], [ 6.963699993218876, 47.179475356457054 ], [ 6.963499725100315, 47.201961723472635 ] ], [ [ 6.86500187188052, 47.15653701862206 ], [ 6.897967757338022, 47.156697089022146 ], [ 6.898195397274032, 47.134210599014374 ], [ 6.865243366057056, 47.134050595350246 ], [ 6.86500187188052, 47.15653701862206 ] ] ], [ [ [ 6.866447792679551, 47.021616788223966 ], [ 6.866928148129894, 46.976642540722196 ], [ 6.899783525074866, 46.976802078802251 ], [ 6.89955722114881, 46.999289317209701 ], [ 6.93242656113427, 46.999439494335917 ], [ 6.932213852008449, 47.021926698659776 ], [ 6.866447792679551, 47.021616788223966 ] ] ], [ [ [ 6.768363271249282, 46.976107387276038 ], [ 6.735508768731602, 46.975910156794093 ], [ 6.735803687167347, 46.953423195799907 ], [ 6.768644429476843, 46.9536203443582 ], [ 6.768363271249282, 46.976107387276038 ] ] ], [ [ [ 6.767518379746185, 47.043567942064527 ], [ 6.668831579621116, 47.042947208625925 ], [ 6.669477809294544, 46.997974119466008 ], [ 6.636610313104207, 46.997748527334259 ], [ 6.636946792011093, 46.975261929215492 ], [ 6.571240198569628, 46.974782665529155 ], [ 6.571603912373219, 46.952296172772947 ], [ 6.505926054594067, 46.951779435656924 ], [ 6.506316955883127, 46.929293066995612 ], [ 6.473492258180901, 46.9290206847908 ], [ 6.473896566122119, 46.906534342022127 ], [ 6.441085940552002, 46.906252663034202 ], [ 6.441920974568139, 46.861279963206712 ], [ 6.474704167762264, 46.861561408699203 ], [ 6.475107462432338, 46.839074825046865 ], [ 6.573417920007413, 46.839862422411983 ], [ 6.573055725208507, 46.86234933252662 ], [ 6.704195322733935, 46.863268261693776 ], [ 6.70388767665069, 46.885755476365759 ], [ 6.736686961357082, 46.885961786733901 ], [ 6.736098358513351, 46.930936144825331 ], [ 6.670445122985658, 46.930513766648886 ], [ 6.670122955344736, 46.953000642198617 ], [ 6.702963191950377, 46.953216628366867 ], [ 6.702345576393602, 46.99819028518943 ], [ 6.76808187711184, 46.998594336832575 ], [ 6.768363271249282, 46.976107387276038 ], [ 6.80121800967948, 46.97629519484164 ], [ 6.800950387626275, 46.998782222478901 ], [ 6.833819122839993, 46.998960681169955 ], [ 6.833565060051539, 47.021447686293129 ], [ 6.767800246724394, 47.021081189578467 ], [ 6.767518379746185, 47.043567942064527 ] ], [ [ 6.506316955883127, 46.929293066995612 ], [ 6.539141980822389, 46.929556035339246 ], [ 6.539518820522479, 46.907069470482064 ], [ 6.506707529938997, 46.906806611232575 ], [ 6.506316955883127, 46.929293066995612 ] ], [ [ 6.605142336064175, 46.90756695839567 ], [ 6.604792966420865, 46.930053729739619 ], [ 6.637618904082398, 46.930288455460612 ], [ 6.637954538057768, 46.907801586724453 ], [ 6.605142336064175, 46.90756695839567 ] ], [ [ 6.605142336064175, 46.90756695839567 ], [ 6.605491413389953, 46.885080103664571 ], [ 6.572693227481783, 46.884836166070627 ], [ 6.572330426391503, 46.907322919593369 ], [ 6.605142336064175, 46.90756695839567 ] ], [ [ 6.507097777232105, 46.884320071818578 ], [ 6.539895344940699, 46.884582822065056 ], [ 6.540271554530106, 46.862096093538995 ], [ 6.507487698231992, 46.861833452204316 ], [ 6.507097777232105, 46.884320071818578 ] ] ] ] } },
{ "type": "Feature", "properties": { "patches": 34 }, "geometry": { "type": "MultiPolygon", "coordinates": [ [ [ [ 7.359403849716529, 47.225405582843976 ], [ 7.392413028828022, 47.22542384686075 ], [ 7.392393158844532, 47.247910363864015 ], [ 7.359370076295629, 47.247892092127323 ], [ 7.359403849716529, 47.225405582843976 ] ] ], [ [ [ 7.359403849716529, 47.225405582843976 ], [ 7.161349786839462, 47.225097183017979 ], [ 7.161232594259766, 47.247583563035626 ], [ 7.128209959076808, 47.247498992070859 ], [ 7.128341054446741, 47.225012647421423 ], [ 7.09533243277893, 47.224918644635977 ], [ 7.09547730832865, 47.202432208522467 ], [ 7.293447117189823, 47.202854039828566 ], [ 7.293508593240057, 47.180367300015732 ], [ 7.326489931844854, 47.180404467729609 ], [ 7.326442335694247, 47.202891223135815 ], [ 7.359437594502653, 47.202918942950625 ], [ 7.359403849716529, 47.225405582843976 ] ] ], [ [ [ 7.293508593240057, 47.180367300015732 ], [ 7.260527306574668, 47.180320672777995 ], [ 7.260602598816771, 47.157833828746462 ], [ 7.293570017351079, 47.157880436464026 ], [ 7.293508593240057, 47.180367300015732 ] ] ] ] } },
{ "type": "Feature", "properties": { "patches": 37 }, "geometry": { "type": "Polygon", "coordinates": [ [ [ 7.656486085235671, 47.22522913035219 ], [ 7.656394805178961, 47.20274256311388 ], [ 7.689389822935708, 47.202675648022449 ], [ 7.68949499431141, 47.225162187455581 ], [ 7.656486085235671, 47.22522913035219 ] ] ] } },
{ "type": "Feature", "properties": { "patches": 40 }, "geometry": { "type": "Polygon", "coordinates": [ [ [ 8.316634058267155, 47.222091577348756 ], [ 8.315896243703746, 47.177120926108863 ], [ 8.348873392976461, 47.176864867927961 ], [ 8.349638966906388, 47.221835305841466 ], [ 8.316634058267155, 47.222091577348756 ] ] ] } },
{ "type": "Feature", "properties": { "patches": 41 }, "geometry": { "type": "MultiPolygon", "coordinates": [ [ [ [ 8.744022107916013, 47.150570746167453 ], [ 8.875852004385395, 47.148998735462378 ], [ 8.876456027551326, 47.171481903954209 ], [ 8.810514343025979, 47.172287144518194 ], [ 8.811091145701193, 47.194770521461699 ], [ 8.745119786569667, 47.195538265494335 ], [ 8.744022107916013, 47.150570746167453 ] ] ], [ [ [ 8.775295751295085, 47.082740199238614 ], [ 8.774735177169326, 47.060256062861889 ], [ 8.807637599486949, 47.059868430200098 ], [ 8.808211981214598, 47.08235240550507 ], [ 8.775295751295085, 47.082740199238614 ] ] ], [ [ [ 8.744022107916013, 47.150570746167453 ], [ 8.711063450687389, 47.150940122957245 ], [ 8.710529147875897, 47.128456023665962 ], [ 8.644638184782451, 47.129166128952406 ], [ 8.642615985628925, 47.039227394242104 ], [ 8.675506421883066, 47.038877647000781 ], [ 8.674988145458149, 47.016392836788029 ], [ 8.707864360143867, 47.016033807116088 ], [ 8.709461889459662, 47.083487470710949 ], [ 8.775295751295085, 47.082740199238614 ], [ 8.776418313804482, 47.127708130640393 ], [ 8.743473961303849, 47.12808680049595 ], [ 8.744022107916013, 47.150570746167453 ] ] ], [ [ [ 8.707864360143867, 47.016033807116088 ], [ 8.707332743340572, 46.993549043947112 ], [ 8.740194737726961, 46.993180739786524 ], [ 8.73964980363403, 46.970696030770206 ], [ 8.772497579021023, 46.970318460058643 ], [ 8.773056275158599, 46.992803012449833 ], [ 8.805917344101116, 46.992415862192082 ], [ 8.806490281624367, 47.014900155091446 ], [ 8.707864360143867, 47.016033807116088 ] ] ], [ [ [ 8.707332743340572, 46.993549043947112 ], [ 8.641607429847147, 46.99425738175114 ], [ 8.640600563419415, 46.949286975983519 ], [ 8.706270845331064, 46.948579225363709 ], [ 8.707332743340572, 46.993549043947112 ] ] ] ] } },
{ "type": "Feature", "properties": { "patches": 42 }, "geometry": { "type": "Polygon", "coordinates": [ [ [ 7.128602913174872, 47.180039569323732 ], [ 7.128864330286674, 47.135065995809214 ], [ 7.161817568612719, 47.135150390230592 ], [ 7.161700771165451, 47.157637272440482 ], [ 7.227635243823459, 47.15777776547673 ], [ 7.227546083542206, 47.180264586048395 ], [ 7.128602913174872, 47.180039569323732 ] ] ] } },
{ "type": "Feature", "properties": { "patches": 43 }, "geometry": { "type": "Polygon", "coordinates": [ [ [ 8.513754073424101, 47.175442723607162 ], [ 8.512400392017383, 47.107987911657915 ], [ 8.57826699907551, 47.107353651313822 ], [ 8.577788882675078, 47.084868742717681 ], [ 8.610707765749478, 47.084537584180573 ], [ 8.611692058392222, 47.129507010586423 ], [ 8.545798574121701, 47.130160430678281 ], [ 8.546729114574653, 47.175129925414936 ], [ 8.513754073424101, 47.175442723607162 ] ] ] } },
{ "type": "Feature", "properties": { "patches": 44 }, "geometry": { "type": "MultiPolygon", "coordinates": [ [ [ [ 8.413597668718085, 47.108868468841706 ], [ 8.446532269343205, 47.108584394496795 ], [ 8.446955443615066, 47.131069699594455 ], [ 8.414007005593188, 47.131353892077328 ], [ 8.413597668718085, 47.108868468841706 ] ] ], [ [ [ 8.413597668718085, 47.108868468841706 ], [ 8.380662724072513, 47.109143098211106 ], [ 8.379872722787891, 47.064171682631958 ], [ 8.412780026517648, 47.063897281391377 ], [ 8.413597668718085, 47.108868468841706 ] ] ] ] } },
{ "type": "Feature", "properties": { "patches": 45 }, "geometry": { "type": "Polygon", "coordinates": [ [ [ 8.809362193743251, 47.127320014356421 ], [ 8.808786845734215, 47.104836268041126 ], [ 8.841716411358863, 47.104438870861287 ], [ 8.841127728335232, 47.081955173454986 ], [ 8.874042981058571, 47.081548503357745 ], [ 8.87524848940352, 47.126515443564344 ], [ 8.809362193743251, 47.127320014356421 ] ] ] } },
{ "type": "Feature", "properties": { "patches": 46 }, "geometry": { "type": "Polygon", "coordinates": [ [ [ 9.27052038182231, 47.120894670698092 ], [ 9.269751483361365, 47.098413595212918 ], [ 9.236829259643498, 47.098933714630157 ], [ 9.235321003936368, 47.053970779724544 ], [ 9.334002918435727, 47.052383427644742 ], [ 9.334798115766908, 47.074864293061481 ], [ 9.301891001625469, 47.07540306396421 ], [ 9.303455778143318, 47.120364893212191 ], [ 9.27052038182231, 47.120894670698092 ] ] ] } },
{ "type": "Feature", "properties": { "patches": 48 }, "geometry": { "type": "MultiPolygon", "coordinates": [ [ [ [ 7.261053021120925, 47.022910358755212 ], [ 7.260978108749913, 47.045397872920027 ], [ 7.228079919144695, 47.045341926654388 ], [ 7.227991133864077, 47.067829314388412 ], [ 7.162167370963236, 47.067689055814441 ], [ 7.16228377555569, 47.045201726573083 ], [ 7.030692755437229, 47.044808097677482 ], [ 7.030864252599871, 47.022320829221719 ], [ 7.063748022930765, 47.022433343022009 ], [ 7.063905590313336, 46.999945927918233 ], [ 7.129645944649234, 47.000142578577808 ], [ 7.129515949349551, 47.022630075574767 ], [ 7.195284312946685, 47.02278908096298 ], [ 7.195489072101314, 46.977813858298838 ], [ 7.228345827361293, 46.977879158712241 ], [ 7.228434314583054, 46.955391379312523 ], [ 7.16274841673583, 46.955251412711796 ], [ 7.162864333436495, 46.932763602264863 ], [ 7.130035276358683, 46.932679523757756 ], [ 7.130164836054706, 46.910191662370316 ], [ 7.228611066393151, 46.910415556076003 ], [ 7.228699331194857, 46.88792751913676 ], [ 7.195897560648288, 46.887862327360679 ], [ 7.195999468970529, 46.865374238575342 ], [ 7.261575648989915, 46.865495163324525 ], [ 7.261650059949663, 46.843006948750521 ], [ 7.29442454304789, 46.843053284898524 ], [ 7.294363838271852, 46.865541518765092 ], [ 7.327152078455563, 46.865578469539109 ], [ 7.327199076974819, 46.843090220273751 ], [ 7.359973650286933, 46.843117754851299 ], [ 7.359907037893374, 46.888094200950192 ], [ 7.425511105280243, 46.888121090310229 ], [ 7.425516989817083, 46.865632893643898 ], [ 7.458305319007222, 46.8656322255653 ], [ 7.458320992030173, 46.910608539662761 ], [ 7.359873689683597, 46.91058230738799 ], [ 7.359840313411431, 46.933070331486093 ], [ 7.327010846020166, 46.933042750831085 ], [ 7.326916493096657, 46.978018515116943 ], [ 7.359773476518328, 46.97804611886832 ], [ 7.359706526890075, 47.02302153550847 ], [ 7.261053021120925, 47.022910358755212 ] ], [ [ 7.261053021120925, 47.022910358755212 ], [ 7.261127870499209, 47.000422744969292 ], [ 7.228257265785807, 47.00036684536807 ], [ 7.228168629749406, 47.022854435831583 ], [ 7.261053021120925, 47.022910358755212 ] ], [ [ 7.2612773806403, 46.955447232327487 ], [ 7.261202656975484, 46.977935035010582 ], [ 7.294059549401465, 46.977981487155965 ], [ 7.294120509418958, 46.955493665099574 ], [ 7.2612773806403, 46.955447232327487 ] ], [ [ 7.228434314583054, 46.955391379312523 ], [ 7.2612773806403, 46.955447232327487 ], [ 7.261352041584031, 46.932959340368598 ], [ 7.228522727558077, 46.932903510617571 ], [ 7.228434314583054, 46.955391379312523 ] ], [ [ 7.261426639896881, 46.91047136258257 ], [ 7.294242275941777, 46.910517756656567 ], [ 7.29430308259422, 46.888029677167459 ], [ 7.261501175668887, 46.887983302418235 ], [ 7.261426639896881, 46.91047136258257 ] ] ], [ [ [ 7.29442454304789, 46.843053284898524 ], [ 7.294485196995398, 46.820564979016893 ], [ 7.32724603610891, 46.820601899006135 ], [ 7.327199076974819, 46.843090220273751 ], [ 7.29442454304789, 46.843053284898524 ] ] ] ] } },
{ "type": "Feature", "properties": { "patches": 49 }, "geometry": { "type": "Polygon", "coordinates": [ [ [ 9.498459277277457, 47.049549259364184 ], [ 9.497595847403476, 47.027069458354767 ], [ 9.530471213504736, 47.026474587889716 ], [ 9.531348420265299, 47.048954141910421 ], [ 9.498459277277457, 47.049549259364184 ] ] ] } },
{ "type": "Feature", "properties": { "patches": 50 }, "geometry": { "type": "Polygon", "coordinates": [ [ [ 9.564236826712525, 47.048349597449032 ], [ 9.562455608537459, 47.003390881319127 ], [ 9.595315728928549, 47.00277741964549 ], [ 9.594412487549187, 46.980298154594777 ], [ 9.627258099874995, 46.979675532815577 ], [ 9.629092852818877, 47.024633439525047 ], [ 9.596219727739628, 47.025256578063122 ], [ 9.597124485074334, 47.047735626389219 ], [ 9.564236826712525, 47.048349597449032 ] ] ] } },
{ "type": "Feature", "properties": { "patches": 51 }, "geometry": { "type": "MultiPolygon", "coordinates": [ [ [ [ 9.725790283837906, 46.977751184840521 ], [ 9.726748521005037, 47.00022939342302 ], [ 9.661033685876358, 47.00152224158893 ], [ 9.660102944357343, 46.979043496978079 ], [ 9.725790283837906, 46.977751184840521 ] ] ], [ [ [ 9.725790283837906, 46.977751184840521 ], [ 9.724832848963599, 46.955272872198492 ], [ 9.757661586374175, 46.954612870399345 ], [ 9.756691229488787, 46.932134730557699 ], [ 9.789505432300823, 46.931465597625056 ], [ 9.791474414104782, 46.97642122166976 ], [ 9.725790283837906, 46.977751184840521 ] ] ] ] } },
{ "type": "Feature", "properties": { "patches": 52 }, "geometry": { "type": "Polygon", "coordinates": [ [ [ 9.167354884698224, 46.987535375905033 ], [ 9.166631101361524, 46.96505300760866 ], [ 9.199471897263759, 46.964553011892129 ], [ 9.200209432586519, 46.98703517281001 ], [ 9.167354884698224, 46.987535375905033 ] ] ] } },
{ "type": "Feature", "properties": { "patches": 53 }, "geometry": { "type": "Polygon", "coordinates": [ [ [ 9.397323332522502, 46.983836166961808 ], [ 9.396503304544284, 46.961355332222432 ], [ 9.462175071867041, 46.960214131332371 ], [ 9.463022589662945, 46.982694492821039 ], [ 9.397323332522502, 46.983836166961808 ] ] ] } },
{ "type": "Feature", "properties": { "patches": 54 }, "geometry": { "type": "MultiPolygon", "coordinates": [ [ [ [ 9.494149356889828, 46.937149194290974 ], [ 9.526969730579909, 46.936555309711913 ], [ 9.528719005333432, 46.981515154304127 ], [ 9.495871158431719, 46.982109531413016 ], [ 9.494149356889828, 46.937149194290974 ] ] ], [ [ [ 9.494149356889828, 46.937149194290974 ], [ 9.461328263407372, 46.937733670959268 ], [ 9.46048216326407, 46.915253115159324 ], [ 9.49328953631054, 46.914668880556633 ], [ 9.494149356889828, 46.937149194290974 ] ] ], [ [ [ 9.49328953631054, 46.914668880556633 ], [ 9.492430434479166, 46.892188474650546 ], [ 9.558015597991327, 46.890992289169375 ], [ 9.558902114681853, 46.913472199688897 ], [ 9.49328953631054, 46.914668880556633 ] ] ] ] } },
{ "type": "Feature", "properties": { "patches": 55 }, "geometry": { "type": "Polygon", "coordinates": [ [ [ 9.626341875705394, 46.957196422644934 ], [ 9.624511726449487, 46.912237905966499 ], [ 9.657315391248893, 46.911606655319062 ], [ 9.65824379816331, 46.934085700383889 ], [ 9.691060400969329, 46.933444782378196 ], [ 9.692003310402773, 46.955923465130439 ], [ 9.626341875705394, 46.957196422644934 ] ] ] } },
{ "type": "Feature", "properties": { "patches": 56 }, "geometry": { "type": "Polygon", "coordinates": [ [ [ 8.672919378525116, 46.926452611529008 ], [ 8.671887589587437, 46.881481956580153 ], [ 8.704681327710762, 46.881123818655382 ], [ 8.705210723849548, 46.903609040133048 ], [ 8.73801773647345, 46.903241346078701 ], [ 8.738561303663131, 46.925726330463995 ], [ 8.672919378525116, 46.926452611529008 ] ] ] } },
{ "type": "Feature", "properties": { "patches": 57 }, "geometry": { "type": "Polygon", "coordinates": [ [ [ 8.311495310537257, 46.90728749469109 ], [ 8.311130560032895, 46.88480075054612 ], [ 8.376725936637259, 46.884281983763209 ], [ 8.377118133235536, 46.906768513092288 ], [ 8.311495310537257, 46.90728749469109 ] ] ] } },
{ "type": "Feature", "properties": { "patches": 58 }, "geometry": { "type": "MultiPolygon", "coordinates": [ [ [ [ 9.620860593482041, 46.82231978411707 ], [ 9.457104825524118, 46.825330006844574 ], [ 9.456262251731584, 46.802849025776602 ], [ 9.423522607202962, 46.80342266807331 ], [ 9.42269438863871, 46.780941375341698 ], [ 9.520870248178188, 46.779193016380802 ], [ 9.521739422679518, 46.801673586547068 ], [ 9.554476926364908, 46.801071790401664 ], [ 9.553594101940961, 46.778591468831706 ], [ 9.586317220413932, 46.777980541333953 ], [ 9.587213693705207, 46.800460610437888 ], [ 9.619949713338379, 46.799840047065068 ], [ 9.620860593482041, 46.82231978411707 ] ] ], [ [ [ 9.619949713338379, 46.799840047065068 ], [ 9.619039592251305, 46.777360234296275 ], [ 9.684482050646107, 46.776091483267926 ], [ 9.686357659214524, 46.821049984100235 ], [ 9.719105023411737, 46.820401004856436 ], [ 9.720057668680882, 46.842879869194576 ], [ 9.752817904671231, 46.842221232111918 ], [ 9.75475294886343, 46.887178162229567 ], [ 9.721965346571467, 46.887837344514431 ], [ 9.721011109353164, 46.865358650234043 ], [ 9.622684635300399, 46.867279017232434 ], [ 9.620860593482041, 46.82231978411707 ], [ 9.653609512113903, 46.821689577330027 ], [ 9.652684973904378, 46.799210100698843 ], [ 9.619949713338379, 46.799840047065068 ] ] ], [ [ [ 9.520870248178188, 46.779193016380802 ], [ 9.520001797608749, 46.75671237458851 ], [ 9.552712012796544, 46.756111075428628 ], [ 9.553594101940961, 46.778591468831706 ], [ 9.520870248178188, 46.779193016380802 ] ] ], [ [ [ 9.520001797608749, 46.75671237458851 ], [ 9.487290859516037, 46.757304297264248 ], [ 9.486436760120112, 46.734823342986274 ], [ 9.453738739753648, 46.735405648327806 ], [ 9.452898968878795, 46.712924389291032 ], [ 9.485583371266705, 46.712342324203547 ], [ 9.484730691938779, 46.689861244374818 ], [ 9.550070146517426, 46.688669498812899 ], [ 9.550950036135106, 46.711150086959876 ], [ 9.518267064119193, 46.711750889961607 ], [ 9.520001797608749, 46.75671237458851 ] ] ] ] } },
{ "type": "Feature", "properties": { "patches": 59 }, "geometry": { "type": "Polygon", "coordinates": [ [ [ 10.245290390605797, 46.853689213467568 ], [ 10.244118258949426, 46.831215256980862 ], [ 10.211371318998751, 46.832014679314661 ], [ 10.209057268770373, 46.78706584754908 ], [ 10.27449560883252, 46.785458949556045 ], [ 10.27567942162608, 46.807932743353469 ], [ 10.308410751478501, 46.807114896308661 ], [ 10.309609195657329, 46.829588267963587 ], [ 10.27686422161751, 46.830406453016501 ], [ 10.278050010223559, 46.852880075078424 ], [ 10.245290390605797, 46.853689213467568 ] ] ] } },
{ "type": "Feature", "properties": { "patches": 60 }, "geometry": { "type": "Polygon", "coordinates": [ [ [ 7.491093641798503, 46.865622152758547 ], [ 7.491072108513774, 46.843133884906933 ], [ 7.556621276401931, 46.843085544964417 ], [ 7.556670222343743, 46.865573792993473 ], [ 7.491093641798503, 46.865622152758547 ] ] ] } },
{ "type": "Feature", "properties": { "patches": 61 }, "geometry": { "type": "MultiPolygon", "coordinates": [ [ [ [ 9.22632434928768, 46.784184782275176 ], [ 9.227070629679931, 46.806667415584954 ], [ 9.259814248861028, 46.806150091192386 ], [ 9.260574821933741, 46.828632437215212 ], [ 9.227817532683744, 46.829149975531791 ], [ 9.228565059193398, 46.851632458659523 ], [ 9.163021255945296, 46.852639777177416 ], [ 9.162301095038432, 46.830156877488299 ], [ 9.195059619919125, 46.82965812240306 ], [ 9.193593767067359, 46.784692509229579 ], [ 9.22632434928768, 46.784184782275176 ] ] ], [ [ [ 9.22632434928768, 46.784184782275176 ], [ 9.224833652769165, 46.739219309392361 ], [ 9.257536329960823, 46.738702625702352 ], [ 9.2582950037826, 46.761185181979357 ], [ 9.291010684765997, 46.760658905424542 ], [ 9.291783637180881, 46.783141177634953 ], [ 9.22632434928768, 46.784184782275176 ] ] ] ] } },
{ "type": "Feature", "properties": { "patches": 62 }, "geometry": { "type": "MultiPolygon", "coordinates": [ [ [ [ 6.606536895658734, 46.81761907365339 ], [ 6.639294269649443, 46.817853313226827 ], [ 6.638959756592383, 46.840340494483399 ], [ 6.606188692768357, 46.840106157842875 ], [ 6.606536895658734, 46.81761907365339 ] ] ], [ [ [ 6.606536895658734, 46.81761907365339 ], [ 6.573779812313409, 46.817375439177454 ], [ 6.574141402560597, 46.794888386273882 ], [ 6.606884807907085, 46.795131919879125 ], [ 6.606536895658734, 46.81761907365339 ] ] ] ] } },
{ "type": "Feature", "properties": { "patches": 63 }, "geometry": { "type": "MultiPolygon", "coordinates": [ [ [ [ 8.113210230886921, 46.796181350992669 ], [ 8.145954945397218, 46.79598343902844 ], [ 8.146250085958046, 46.818470949860853 ], [ 8.113491691569376, 46.818668943622868 ], [ 8.113210230886921, 46.796181350992669 ] ] ], [ [ [ 8.113210230886921, 46.796181350992669 ], [ 8.080465281831293, 46.796369871229601 ], [ 8.080197724501328, 46.773882134982365 ], [ 8.112929004746171, 46.773693692592587 ], [ 8.113210230886921, 46.796181350992669 ] ] ] ] } },
{ "type": "Feature", "properties": { "patches": 64 }, "geometry": { "type": "Polygon", "coordinates": [ [ [ 6.443170911458234, 46.793820345036174 ], [ 6.443586861985518, 46.77133366787033 ], [ 6.41085874304579, 46.771043301942363 ], [ 6.411287999745172, 46.748556681731202 ], [ 6.476717278066753, 46.749127791026403 ], [ 6.475913041893506, 46.794101441016188 ], [ 6.443170911458234, 46.793820345036174 ] ] ] } },
{ "type": "Feature", "properties": { "patches": 65 }, "geometry": { "type": "MultiPolygon", "coordinates": [ [ [ [ 6.673012786034253, 46.750615931679896 ], [ 6.738446876558689, 46.751036911724697 ], [ 6.738154169192219, 46.773524558342892 ], [ 6.70542333950779, 46.773318674986456 ], [ 6.70511671971124, 46.795806173965403 ], [ 6.672372477884127, 46.795590813878817 ], [ 6.673012786034253, 46.750615931679896 ] ] ], [ [ [ 6.935175631303331, 46.70709831071256 ], [ 6.934965222489399, 46.72958650069161 ], [ 6.902260403919808, 46.72943706931742 ], [ 6.902484448635255, 46.706948941148035 ], [ 6.935175631303331, 46.70709831071256 ] ] ], [ [ [ 7.164018179744059, 46.707881342666525 ], [ 7.163903228363707, 46.730369856850757 ], [ 7.131197420339026, 46.730286091888225 ], [ 7.131326009037768, 46.707797612397336 ], [ 7.164018179744059, 46.707881342666525 ] ] ], [ [ [ 7.262169198051115, 46.685587623028887 ], [ 7.294848057356073, 46.6856338245776 ], [ 7.294727305956778, 46.730611104326819 ], [ 7.262021182456738, 46.730564864401103 ], [ 7.262169198051115, 46.685587623028887 ] ] ], [ [ [ 7.098776052851915, 46.685216012482357 ], [ 7.098633945449085, 46.707704504867642 ], [ 7.03325018500084, 46.707490158282383 ], [ 7.033419543520327, 46.685001754579915 ], [ 7.098776052851915, 46.685216012482357 ] ] ], [ [ [ 7.262169198051115, 46.685587623028887 ], [ 7.229490400396228, 46.685532047904076 ], [ 7.229315120783646, 46.730509243153918 ], [ 7.196609132298907, 46.730444240622603 ], [ 7.196710446223531, 46.707955695619177 ], [ 7.164018179744059, 46.707881342666525 ], [ 7.164133035352007, 46.685392777081397 ], [ 7.098776052851915, 46.685216012482357 ], [ 7.098918041963609, 46.662727472085322 ], [ 7.131582865238488, 46.66282050257638 ], [ 7.131711133046811, 46.640331879146508 ], [ 7.164362459798737, 46.640415505508514 ], [ 7.164247795324624, 46.662904163545321 ], [ 7.262243113329486, 46.66309892879201 ], [ 7.262169198051115, 46.685587623028887 ] ] ], [ [ [ 6.577382193361816, 46.592502344480103 ], [ 6.577740786717413, 46.570014784706515 ], [ 6.610348036412033, 46.570257314210323 ], [ 6.610003007782819, 46.59274497401907 ], [ 6.577382193361816, 46.592502344480103 ] ] ], [ [ [ 6.673012786034253, 46.750615931679896 ], [ 6.574863678610845, 46.74991408526369 ], [ 6.575584751614613, 46.704939546990417 ], [ 6.542896244326653, 46.704687040678969 ], [ 6.542522225924979, 46.727174233341394 ], [ 6.411716898857113, 46.726070001736517 ], [ 6.412145440893823, 46.703583265410217 ], [ 6.346772133259305, 46.702975130365729 ], [ 6.347682597836771, 46.658002004681158 ], [ 6.380341843388014, 46.658310504382463 ], [ 6.380782912992675, 46.635823743226197 ], [ 6.413428929660192, 46.636122752963146 ], [ 6.414709223096816, 46.568661857811527 ], [ 6.382103925995362, 46.568363217816149 ], [ 6.382543533467673, 46.545876306874561 ], [ 6.415135279868156, 46.546174823826995 ], [ 6.415560983627476, 46.523687761129878 ], [ 6.513297674643013, 46.524526880826372 ], [ 6.512912592293057, 46.547014289277627 ], [ 6.54550568344543, 46.547275415339563 ], [ 6.544761676706736, 46.592250358901119 ], [ 6.577382193361816, 46.592502344480103 ], [ 6.576664112937218, 46.637477355111038 ], [ 6.609312090590422, 46.637720184969417 ], [ 6.609657692645587, 46.615232598755995 ], [ 6.674927322941519, 46.615689977743379 ], [ 6.675245484903425, 46.593202164337313 ], [ 6.642624108715142, 46.592978247356506 ], [ 6.642955572208817, 46.570490491365135 ], [ 6.708171457150979, 46.570928788013795 ], [ 6.708475536831132, 46.548440819824691 ], [ 6.741070308470422, 46.5486458544732 ], [ 6.741360592331476, 46.5261577738612 ], [ 6.708779364492287, 46.525952823696663 ], [ 6.709082940494034, 46.5034648030813 ], [ 6.741650635742327, 46.503669668831805 ], [ 6.741940439045903, 46.481181542836616 ], [ 6.839604354490941, 46.481739861239127 ], [ 6.83910567372584, 46.526716552432347 ], [ 6.871687796114215, 46.526884120903162 ], [ 6.871923705891985, 46.504395716655807 ], [ 6.904492489744012, 46.504553874215539 ], [ 6.904936688874196, 46.459576876790763 ], [ 6.9374786216168, 46.459725569825714 ], [ 6.937270126017959, 46.482214138392898 ], [ 6.969825743482766, 46.482353554441254 ], [ 6.969630598653563, 46.504842163303479 ], [ 7.002199901317087, 46.50497229464051 ], [ 7.001836207199294, 46.549949554581026 ], [ 7.06702941618875, 46.550181982061218 ], [ 7.066874458071462, 46.572670668566587 ], [ 7.034264225959983, 46.572559083793792 ], [ 7.034095570156142, 46.595047693419339 ], [ 7.001471909195645, 46.594926704827436 ], [ 7.001289533196815, 46.617415230188392 ], [ 7.033926774210964, 46.61753626876127 ], [ 7.033419543520327, 46.685001754579915 ], [ 7.000741494611483, 46.684880565815043 ], [ 7.000558510828598, 46.707368919370232 ], [ 6.935175631303331, 46.70709831071256 ], [ 6.935385864941972, 46.684610069063062 ], [ 6.902708306833778, 46.684460761256737 ], [ 6.902484448635255, 46.706948941148035 ], [ 6.869793452486078, 46.706790194890871 ], [ 6.870030934977514, 46.68430208062788 ], [ 6.837353760698224, 46.684134027282383 ], [ 6.836851338497291, 46.729110064977604 ], [ 6.771443111077872, 46.728745539255854 ], [ 6.771721696562008, 46.706257697056287 ], [ 6.739031559895708, 46.70606144515277 ], [ 6.739323536564452, 46.683573632100511 ], [ 6.706647265832403, 46.683368089074058 ], [ 6.706341666449062, 46.705855817150002 ], [ 6.640962654567244, 46.705416433403038 ], [ 6.640629533634665, 46.727903927670326 ], [ 6.673332539934222, 46.728128400244195 ], [ 6.673012786034253, 46.750615931679896 ] ], [ [ 6.412573626366538, 46.681096476204466 ], [ 6.445247201849575, 46.681386362372216 ], [ 6.445661423731686, 46.658899404048334 ], [ 6.413001455785555, 46.658609637571381 ], [ 6.412573626366538, 46.681096476204466 ] ], [ [ 6.8702682198941, 46.661813918038902 ], [ 6.935595923656047, 46.66212177919347 ], [ 6.93580580769583, 46.639633444554313 ], [ 6.870505307518507, 46.639325710574667 ], [ 6.8702682198941, 46.661813918038902 ] ], [ [ 7.001289533196815, 46.617415230188392 ], [ 6.968652443804218, 46.617284830104417 ], [ 6.968456325070546, 46.639773263806433 ], [ 7.001107005577941, 46.639903717773649 ], [ 7.001289533196815, 46.617415230188392 ] ], [ [ 6.544761676706736, 46.592250358901119 ], [ 6.479521581708669, 46.591718320299819 ], [ 6.47912196526861, 46.614205521432545 ], [ 6.544389210033866, 46.61473777954641 ], [ 6.544761676706736, 46.592250358901119 ] ], [ [ 6.805997149324849, 46.571516086695858 ], [ 6.740779783815587, 46.571133907216321 ], [ 6.740489018022753, 46.59362192863906 ], [ 6.805733517083708, 46.59400426580703 ], [ 6.805997149324849, 46.571516086695858 ] ], [ [ 6.83860616568477, 46.571693146718786 ], [ 6.838356100696588, 46.594181398893852 ], [ 6.870978892018812, 46.594349174823328 ], [ 6.871215389457396, 46.571860853438025 ], [ 6.83860616568477, 46.571693146718786 ] ], [ [ 6.805997149324849, 46.571516086695858 ], [ 6.83860616568477, 46.571693146718786 ], [ 6.838856023262495, 46.549204863414538 ], [ 6.806260562912424, 46.549027876395002 ], [ 6.805997149324849, 46.571516086695858 ] ], [ [ 6.871687796114215, 46.526884120903162 ], [ 6.871451690729188, 46.549372500980937 ], [ 6.904047554084752, 46.549530788982892 ], [ 6.904270114111951, 46.527042343657001 ], [ 6.871687796114215, 46.526884120903162 ] ], [ [ 6.969630598653563, 46.504842163303479 ], [ 6.937061457730128, 46.504702689797647 ], [ 6.93685261650677, 46.527191220588776 ], [ 6.969435292085916, 46.527330751599706 ], [ 6.969630598653563, 46.504842163303479 ] ] ] ] } },
{ "type": "Feature", "properties": { "patches": 66 }, "geometry": { "type": "Polygon", "coordinates": [ [ [ 7.294545800187315, 46.798076604569495 ], [ 7.294606352696432, 46.775588165005665 ], [ 7.327339836447536, 46.775625054261376 ], [ 7.327292955914352, 46.798113509185583 ], [ 7.294545800187315, 46.798076604569495 ] ] ] } },
{ "type": "Feature", "properties": { "patches": 67 }, "geometry": { "type": "Polygon", "coordinates": [ [ [ 7.360040150913662, 46.798141020781912 ], [ 7.360073359414617, 46.775652554381359 ], [ 7.392806910203237, 46.775670665347114 ], [ 7.392787373774439, 46.79815913933983 ], [ 7.360040150913662, 46.798141020781912 ] ] ] } },
{ "type": "Feature", "properties": { "patches": 68 }, "geometry": { "type": "Polygon", "coordinates": [ [ [ 8.178699413958103, 46.795776135469609 ], [ 8.178390851221206, 46.773288644410819 ], [ 8.145660050782043, 46.773495862357969 ], [ 8.145365401759811, 46.751008223299905 ], [ 8.21079943255314, 46.750584574791034 ], [ 8.211443625166133, 46.795559440454966 ], [ 8.178699413958103, 46.795776135469609 ] ] ] } },
{ "type": "Feature", "properties": { "patches": 69 }, "geometry": { "type": "Polygon", "coordinates": [ [ [ 9.127426071489381, 46.763196490019808 ], [ 9.126721946844397, 46.740713103396494 ], [ 9.028604967448281, 46.742122504879326 ], [ 9.027280214643612, 46.697154384842349 ], [ 9.059959193356695, 46.696694341699697 ], [ 9.060634912599074, 46.719178241131729 ], [ 9.093326947256894, 46.718708634414675 ], [ 9.091948846529334, 46.673741167587849 ], [ 9.124613085159327, 46.673262582470464 ], [ 9.125315454517551, 46.695746146165916 ], [ 9.157992714352018, 46.695257994407356 ], [ 9.158709283906655, 46.717741301087294 ], [ 9.191399563256045, 46.717243575122851 ], [ 9.192861756609405, 46.76220959631739 ], [ 9.127426071489381, 46.763196490019808 ] ] ] } },
{ "type": "Feature", "properties": { "patches": 70 }, "geometry": { "type": "Polygon", "coordinates": [ [ [ 6.967473279757972, 46.752214744242458 ], [ 6.967670216487321, 46.729726551399786 ], [ 7.000375374555058, 46.729857221348134 ], [ 7.000192085572186, 46.752345468298529 ], [ 6.967473279757972, 46.752214744242458 ] ] ] } },
{ "type": "Feature", "properties": { "patches": 71 }, "geometry": { "type": "Polygon", "coordinates": [ [ [ 7.327386677764765, 46.753136537683012 ], [ 7.327433479922224, 46.730647962900072 ], [ 7.360139692991373, 46.730675440096022 ], [ 7.360106540093904, 46.753164026336201 ], [ 7.327386677764765, 46.753136537683012 ] ] ] } },
{ "type": "Feature", "properties": { "patches": 72 }, "geometry": { "type": "Polygon", "coordinates": [ [ [ 9.355640528541317, 46.737096322399942 ], [ 9.354841617542677, 46.71461436577308 ], [ 9.322154490062465, 46.715158950420282 ], [ 9.320585869877988, 46.670194410778734 ], [ 9.353245787502807, 46.669650275179364 ], [ 9.354043370846687, 46.692132348880278 ], [ 9.419388403280889, 46.691015528756814 ], [ 9.420213868258543, 46.713497084835581 ], [ 9.387528080710913, 46.71406041045492 ], [ 9.388340612642205, 46.736542138414293 ], [ 9.355640528541317, 46.737096322399942 ] ] ] } },
{ "type": "Feature", "properties": { "patches": 79 }, "geometry": { "type": "Polygon", "coordinates": [ [ [ 8.766382649402047, 46.722982848711951 ], [ 8.765276856052012, 46.678011856804311 ], [ 8.797946307804079, 46.677626941814303 ], [ 8.799079338353746, 46.722597615994921 ], [ 8.766382649402047, 46.722982848711951 ] ] ] } },
{ "type": "Feature", "properties": { "patches": 81 }, "geometry": { "type": "Polygon", "coordinates": [ [ [ 7.327480242975997, 46.708159333362232 ], [ 7.327526966982067, 46.685670652519249 ], [ 7.360205915599908, 46.685698106829179 ], [ 7.360172818146804, 46.708186799110379 ], [ 7.327480242975997, 46.708159333362232 ] ] ] } },
{ "type": "Feature", "properties": { "patches": 82 }, "geometry": { "type": "Polygon", "coordinates": [ [ [ 7.752482636133379, 46.707784942409283 ], [ 7.752352216504888, 46.685296414819 ], [ 7.785030641055227, 46.685202012514615 ], [ 7.785174686485024, 46.707690501219084 ], [ 7.752482636133379, 46.707784942409283 ] ] ] } },
{ "type": "Feature", "properties": { "patches": 83 }, "geometry": { "type": "Polygon", "coordinates": [ [ [ 9.385905042714981, 46.669096776625814 ], [ 9.385094534718771, 46.646614877672178 ], [ 9.352448866562264, 46.647168148128095 ], [ 9.351652607078085, 46.624685971184384 ], [ 9.41691612003533, 46.623570531206617 ], [ 9.417739530149355, 46.646052248483969 ], [ 9.515670367510358, 46.644308212301453 ], [ 9.516535213937587, 46.666789160338539 ], [ 9.385905042714981, 46.669096776625814 ] ] ] } },
{ "type": "Feature", "properties": { "patches": 84 }, "geometry": { "type": "Polygon", "coordinates": [ [ [ 7.719556986952674, 46.662892833180265 ], [ 7.71920747715449, 46.595426748278847 ], [ 7.751831619282704, 46.595341859126947 ], [ 7.751961606703849, 46.617830557949077 ], [ 7.784599221751805, 46.617736272108182 ], [ 7.784742908859637, 46.640224894508926 ], [ 7.752091701944948, 46.640319219138675 ], [ 7.752221905160402, 46.662807839245389 ], [ 7.719556986952674, 46.662892833180265 ] ] ] } },
{ "type": "Feature", "properties": { "patches": 85 }, "geometry": { "type": "MultiPolygon", "coordinates": [ [ [ [ 7.458219572889391, 46.618257844488156 ], [ 7.556134046951803, 46.618199673639474 ], [ 7.556182588315481, 46.640688486475099 ], [ 7.458227336320127, 46.64074668101722 ], [ 7.458219572889391, 46.618257844488156 ] ] ], [ [ [ 7.458219572889391, 46.618257844488156 ], [ 7.392943206554238, 46.618249814706665 ], [ 7.39298200164676, 46.573272039654817 ], [ 7.425593030795463, 46.573280728217995 ], [ 7.425587211500918, 46.595769636444281 ], [ 7.458211815756505, 46.595768970472541 ], [ 7.458219572889391, 46.618257844488156 ] ] ] ] } },
{ "type": "Feature", "properties": { "patches": 86 }, "geometry": { "type": "Polygon", "coordinates": [ [ [ 7.947996928458502, 46.639612788999358 ], [ 7.947785284898067, 46.617124418457074 ], [ 7.915148378142852, 46.617265512186123 ], [ 7.914950489647396, 46.594777045724726 ], [ 7.947573816827343, 46.594636010040631 ], [ 7.94736252399553, 46.572147567200894 ], [ 7.979972107869955, 46.571997235903837 ], [ 7.980647250322477, 46.639462271995328 ], [ 7.947996928458502, 46.639612788999358 ] ] ] } },
{ "type": "Feature", "properties": { "patches": 87 }, "geometry": { "type": "Polygon", "coordinates": [ [ [ 9.350857008105052, 46.602203747806229 ], [ 9.350062068699726, 46.579721481451642 ], [ 9.415271347824126, 46.578606959662963 ], [ 9.416093392918748, 46.601088767113453 ], [ 9.350857008105052, 46.602203747806229 ] ] ] } },
{ "type": "Feature", "properties": { "patches": 88 }, "geometry": { "type": "Polygon", "coordinates": [ [ [ 9.513942826846113, 46.599346167072667 ], [ 9.512218148942026, 46.554383946034029 ], [ 9.577393376078403, 46.553176458748993 ], [ 9.57917222300434, 46.598137685546156 ], [ 9.513942826846113, 46.599346167072667 ] ] ] } },
{ "type": "Feature", "properties": { "patches": 89 }, "geometry": { "type": "MultiPolygon", "coordinates": [ [ [ [ 7.295329055859474, 46.50572306687431 ], [ 7.295269105915357, 46.528212018746537 ], [ 7.360436825426048, 46.528276114383097 ], [ 7.360370988714958, 46.573253996736995 ], [ 7.295149056496444, 46.57318984789206 ], [ 7.295209106151406, 46.550700946902595 ], [ 7.262611768055813, 46.550654860103769 ], [ 7.262758801471973, 46.505677018198966 ], [ 7.295329055859474, 46.50572306687431 ] ] ], [ [ [ 7.295329055859474, 46.50572306687431 ], [ 7.295388956054799, 46.483234094736602 ], [ 7.360502552587648, 46.483298137252511 ], [ 7.360469702681003, 46.50578713593957 ], [ 7.295329055859474, 46.50572306687431 ] ] ] ] } },
{ "type": "Feature", "properties": { "patches": 90 }, "geometry": { "type": "Polygon", "coordinates": [ [ [ 7.849532767405146, 46.572542439065806 ], [ 7.849362321454286, 46.550053802960996 ], [ 7.881958839046241, 46.549931583013887 ], [ 7.882142842517657, 46.572420168872291 ], [ 7.849532767405146, 46.572542439065806 ] ] ] } },
{ "type": "Feature", "properties": { "patches": 91 }, "geometry": { "type": "Polygon", "coordinates": [ [ [ 8.306055848506226, 46.569979499415012 ], [ 8.305695622925214, 46.547491917166113 ], [ 8.370882041331701, 46.546976351200698 ], [ 8.371269372493559, 46.569463721302306 ], [ 8.306055848506226, 46.569979499415012 ] ] ] } },
{ "type": "Feature", "properties": { "patches": 92 }, "geometry": { "type": "Polygon", "coordinates": [ [ [ 8.534297366143836, 46.568010622285449 ], [ 8.533842279332626, 46.545523849897194 ], [ 8.566433241526575, 46.545205307783895 ], [ 8.56596499310451, 46.522718637440491 ], [ 8.598542029515578, 46.522390883342048 ], [ 8.599023815747401, 46.544877418864786 ], [ 8.631613990780968, 46.544540183357213 ], [ 8.632109724647407, 46.567026550948242 ], [ 8.534297366143836, 46.568010622285449 ] ] ] } },
{ "type": "Feature", "properties": { "patches": 93 }, "geometry": { "type": "Polygon", "coordinates": [ [ [ 7.197517928339423, 46.528045775890384 ], [ 7.197718961801074, 46.483067989219485 ], [ 7.230275558233989, 46.483132696581443 ], [ 7.230101585684511, 46.528110536719673 ], [ 7.197517928339423, 46.528045775890384 ] ] ] } },
{ "type": "Feature", "properties": { "patches": 94 }, "geometry": { "type": "MultiPolygon", "coordinates": [ [ [ [ 6.286208908715796, 46.477464956176703 ], [ 6.351309373728383, 46.478107930820663 ], [ 6.350857340805752, 46.500594791271425 ], [ 6.285729844250249, 46.499951551963086 ], [ 6.286208908715796, 46.477464956176703 ] ] ], [ [ [ 6.286208908715796, 46.477464956176703 ], [ 6.253659264895895, 46.477129466111961 ], [ 6.254151436952503, 46.454642989520437 ], [ 6.286687577006386, 46.454978341611209 ], [ 6.286208908715796, 46.477464956176703 ] ] ] ] } },
{ "type": "Feature", "properties": { "patches": 95 }, "geometry": { "type": "Polygon", "coordinates": [ [ [ 7.393059397410115, 46.483316150088605 ], [ 7.393097998449955, 46.438338090782338 ], [ 7.360568170511798, 46.438320092950036 ], [ 7.360633679509365, 46.393342009081564 ], [ 7.425639406870558, 46.393368651159506 ], [ 7.425616258357233, 46.483324823958654 ], [ 7.393059397410115, 46.483316150088605 ] ] ] } },
{ "type": "Feature", "properties": { "patches": 96 }, "geometry": { "type": "Polygon", "coordinates": [ [ [ 7.458165404709661, 46.460835132379337 ], [ 7.4581576914099, 46.438346092568594 ], [ 7.523217359463107, 46.438316769175593 ], [ 7.523252078495914, 46.46080579713184 ], [ 7.458165404709661, 46.460835132379337 ] ] ] } },
{ "type": "Feature", "properties": { "patches": 97 }, "geometry": { "type": "Polygon", "coordinates": [ [ [ 7.295568358856417, 46.415767091237122 ], [ 7.295628060764318, 46.393278072544547 ], [ 7.32813085099937, 46.393314702612138 ], [ 7.328084629566982, 46.415803736450549 ], [ 7.295568358856417, 46.415767091237122 ] ] ] } },
{ "type": "Feature", "properties": { "patches": 98 }, "geometry": { "type": "Polygon", "coordinates": [ [ [ 8.043432559748378, 46.414250114271447 ], [ 8.043182224995151, 46.391761716095118 ], [ 8.1081837217403, 46.391396780857455 ], [ 8.108461011622863, 46.413885029350503 ], [ 8.043432559748378, 46.414250114271447 ] ] ] } },
{ "type": "Feature", "properties": { "patches": 99 }, "geometry": { "type": "Polygon", "coordinates": [ [ [ 8.140974899757213, 46.413688497581667 ], [ 8.140684132790778, 46.391200329672266 ], [ 8.205684224675304, 46.39077946081624 ], [ 8.206001944768726, 46.413267456075168 ], [ 8.140974899757213, 46.413688497581667 ] ] ] } },
{ "type": "Feature", "properties": { "patches": 100 }, "geometry": { "type": "Polygon", "coordinates": [ [ [ 7.068418278176447, 46.347782987135631 ], [ 7.068571959393152, 46.325294182482352 ], [ 7.036110247447898, 46.325183102137117 ], [ 7.036277237060252, 46.302694350281023 ], [ 7.101173917287894, 46.302907111763773 ], [ 7.10103379803236, 46.325395951064309 ], [ 7.133495752293634, 46.325488407815975 ], [ 7.133368963921743, 46.347977292346251 ], [ 7.068418278176447, 46.347782987135631 ] ] ] } },
{ "type": "Feature", "properties": { "patches": 101 }, "geometry": { "type": "Polygon", "coordinates": [ [ [ 6.841590851811281, 46.301832679631893 ], [ 6.84257919769621, 46.211879225319734 ], [ 6.810185739162272, 46.211703326144765 ], [ 6.81044569634799, 46.189215086226788 ], [ 6.87520605930496, 46.189557452208504 ], [ 6.874972858971311, 46.2120458324193 ], [ 6.907366711996994, 46.212203147334328 ], [ 6.906926526483281, 46.257180105815905 ], [ 6.939347351453782, 46.257328249884523 ], [ 6.939140399037218, 46.279816817600782 ], [ 6.906706161947858, 46.279668612736643 ], [ 6.906485615883353, 46.302157133508246 ], [ 6.841590851811281, 46.301832679631893 ] ] ] } },
{ "type": "Feature", "properties": { "patches": 102 }, "geometry": { "type": "Polygon", "coordinates": [ [ [ 7.750151524699757, 46.302986919933211 ], [ 7.749894642254234, 46.258009207370179 ], [ 7.782316310516372, 46.257915537795988 ], [ 7.78260003063634, 46.302893173770705 ], [ 7.750151524699757, 46.302986919933211 ] ] ] } },
{ "type": "Feature", "properties": { "patches": 103 }, "geometry": { "type": "MultiPolygon", "coordinates": [ [ [ [ 7.847327914661379, 46.280189020514797 ], [ 7.879762613376338, 46.280067400289973 ], [ 7.879944803740618, 46.302556087516997 ], [ 7.847496681212716, 46.302677757492006 ], [ 7.847327914661379, 46.280189020514797 ] ] ], [ [ [ 7.847327914661379, 46.280189020514797 ], [ 7.814893077284854, 46.280301336687145 ], [ 7.814582774879157, 46.235323816506813 ], [ 7.846990797339468, 46.235211592094622 ], [ 7.847327914661379, 46.280189020514797 ] ] ] ] } },
{ "type": "Feature", "properties": { "patches": 104 }, "geometry": { "type": "Polygon", "coordinates": [ [ [ 6.290502728541961, 46.275085163481407 ], [ 6.290977856530727, 46.252598535321717 ], [ 6.226148046161182, 46.251921007779956 ], [ 6.227150679771215, 46.206948356934767 ], [ 6.29192694132846, 46.207625329733766 ], [ 6.291452593941566, 46.230111922921154 ], [ 6.323854696966541, 46.230436608425215 ], [ 6.322931629650672, 46.275410115172782 ], [ 6.290502728541961, 46.275085163481407 ] ] ] } },
{ "type": "Feature", "properties": { "patches": 105 }, "geometry": { "type": "Polygon", "coordinates": [ [ [ 7.912197162390045, 46.279936476092239 ], [ 7.911806416447053, 46.234959254043687 ], [ 7.94421399107793, 46.234819140570004 ], [ 7.944631550663177, 46.279796248007493 ], [ 7.912197162390045, 46.279936476092239 ] ] ] } },
{ "type": "Feature", "properties": { "patches": 106 }, "geometry": { "type": "MultiPolygon", "coordinates": [ [ [ [ 6.000447300363349, 46.204286366030956 ], [ 6.032832120500364, 46.204694513834681 ], [ 6.032250733971197, 46.227179906829775 ], [ 5.999852536826674, 46.22677159191251 ], [ 6.000447300363349, 46.204286366030956 ] ] ], [ [ [ 6.000447300363349, 46.204286366030956 ], [ 5.968062968450219, 46.203868931122962 ], [ 5.968670609117636, 46.181383897556792 ], [ 6.001041575682116, 46.181801161694899 ], [ 6.000447300363349, 46.204286366030956 ] ] ] ] } },
{ "type": "Feature", "properties": { "patches": 107 }, "geometry": { "type": "Polygon", "coordinates": [ [ [ 9.078292637534718, 46.224059632961556 ], [ 9.076939355003084, 46.179091401211437 ], [ 9.141674282095806, 46.178133554005825 ], [ 9.142377366479577, 46.200617268043089 ], [ 9.109996825674115, 46.201101029921517 ], [ 9.110687116308901, 46.223584962093234 ], [ 9.078292637534718, 46.224059632961556 ] ] ] } },
{ "type": "Feature", "properties": { "patches": 108 }, "geometry": { "type": "Polygon", "coordinates": [ [ [ 6.033413029778742, 46.182209142522119 ], [ 6.033993462482536, 46.159723796347741 ], [ 6.001635363474711, 46.159315982360063 ], [ 6.002228664431581, 46.13683083148225 ], [ 6.131610491553201, 46.138405763591486 ], [ 6.131070571187533, 46.160891558553956 ], [ 6.066352037395816, 46.160122330548482 ], [ 6.065784960455788, 46.182607839771777 ], [ 6.033413029778742, 46.182209142522119 ] ] ] } },
{ "type": "Feature", "properties": { "patches": 109 }, "geometry": { "type": "Polygon", "coordinates": [ [ [ 7.328590969148655, 46.168424768709059 ], [ 7.328636772533524, 46.145935891693533 ], [ 7.393347345631274, 46.145980975200153 ], [ 7.393328260418764, 46.168469870849854 ], [ 7.328590969148655, 46.168424768709059 ] ] ] } },
{ "type": "Feature", "properties": { "patches": 110 }, "geometry": { "type": "MultiPolygon", "coordinates": [ [ [ [ 7.231657032548777, 46.123309868228382 ], [ 7.231571222870891, 46.145798653911001 ], [ 7.199216166105437, 46.145734344758026 ], [ 7.199315323595942, 46.123245585448721 ], [ 7.231657032548777, 46.123309868228382 ] ] ], [ [ [ 7.231657032548777, 46.123309868228382 ], [ 7.231828440725581, 46.078332415424455 ], [ 7.26414355706199, 46.078387375298774 ], [ 7.26407121419992, 46.100876103334549 ], [ 7.296399716009258, 46.100921811708425 ], [ 7.296340650801763, 46.123410600358227 ], [ 7.231657032548777, 46.123309868228382 ] ] ], [ [ [ 7.199315323595942, 46.123245585448721 ], [ 7.134632160699532, 46.123089186670242 ], [ 7.134757910231531, 46.100600529778994 ], [ 7.102429814640695, 46.100508451600184 ], [ 7.102568786669047, 46.078019874143408 ], [ 7.167198429636862, 46.078194685047777 ], [ 7.167086108899448, 46.100683334092935 ], [ 7.199414399727997, 46.100756864487813 ], [ 7.199315323595942, 46.123245585448721 ] ] ], [ [ [ 7.167198429636862, 46.078194685047777 ], [ 7.16742279515307, 46.033217526090162 ], [ 7.199711141123479, 46.033290966211219 ], [ 7.199513394616711, 46.078268185326806 ], [ 7.167198429636862, 46.078194685047777 ] ] ] ] } },
{ "type": "Feature", "properties": { "patches": 111 }, "geometry": { "type": "Polygon", "coordinates": [ [ [ 8.977927130060817, 46.113004727592823 ], [ 8.977292935584185, 46.090520182151607 ], [ 9.041924473679096, 46.089619497219331 ], [ 9.042585306203863, 46.112103675097337 ], [ 8.977927130060817, 46.113004727592823 ] ] ] } },
{ "type": "Feature", "properties": { "patches": 112 }, "geometry": { "type": "Polygon", "coordinates": [ [ [ 7.74848929214643, 46.010633785821341 ], [ 7.748362158545887, 45.988145375407328 ], [ 7.716100490983556, 45.988229333123826 ], [ 7.715986732346388, 45.96574094761062 ], [ 7.780483421300765, 45.965563849189323 ], [ 7.780623722494248, 45.988052162728252 ], [ 7.812885171989402, 45.987949695146973 ], [ 7.813038869516326, 46.010438025981657 ], [ 7.74848929214643, 46.010633785821341 ] ] ] } }
]
}
